[
  {
    "OBJECT_NAME": "STARLINK-6329",
    "OBJECT_ID": "23065Y",
    "EPOCH": "2025-11-11T04:32:00.439008",
    "MEAN_MOTION": 15.025509,
    "ECCENTRICITY": 0.0001416,
    "INCLINATION": 43.0024,
    "RA_OF_ASC_NODE": 133.8483,
    "ARG_OF_PERICENTER": 271.0218,
    "MEAN_ANOMALY": 89.0462,
    "EPHEMERIS_TYPE": 0,
    "CLASSIFICATION_TYPE": "U",
    "NORAD_CAT_ID": 56525,
    "ELEMENT_SET_NO": 999,
    "REV_AT_EPOCH": 13880,
    "BSTAR": 0.0001077,
    "MEAN_MOTION_DOT": 1.252e-05,
    "MEAN_MOTION_DDOT": 0.0,
    "TLE_LINE1": "1 56525U 23065Y   25315.18889397  .00001252  00000+0  10770-3 0  9995",
    "TLE_LINE2": "2 56525  43.0024 133.8483 0001416 271.0218  89.0462 15.02550900138807",
    "COMMENT": "Grouped by shell and plane from TLE"
  },
  {
    "OBJECT_NAME": "STARLINK-6317",
    "OBJECT_ID": "23065Z",
    "EPOCH": "2025-11-10T19:02:26.862144",
    "MEAN_MOTION": 15.02548637,
    "ECCENTRICITY": 0.00013,
    "INCLINATION": 43.0018,
    "RA_OF_ASC_NODE": 136.0455,
    "ARG_OF_PERICENTER": 233.8209,
    "MEAN_ANOMALY": 126.2513,
    "EPHEMERIS_TYPE": 0,
    "CLASSIFICATION_TYPE": "U",
    "NORAD_CAT_ID": 56526,
    "ELEMENT_SET_NO": 999,
    "REV_AT_EPOCH": 13874,
    "BSTAR": 0.0004352,
    "MEAN_MOTION_DOT": 5.682e-05,
    "MEAN_MOTION_DDOT": 0.0,
    "TLE_LINE1": "1 56526U 23065Z   25314.79336646  .00005682  00000+0  43520-3 0  9996",
    "TLE_LINE2": "2 56526  43.0018 136.0455 0001300 233.8209 126.2513 15.02548637138741",
    "COMMENT": "Grouped by shell and plane from TLE"
  },
  {
    "OBJECT_NAME": "STARLINK-6335",
    "OBJECT_ID": "23065AA",
    "EPOCH": "2025-11-10T18:51:14.391072",
    "MEAN_MOTION": 15.02537754,
    "ECCENTRICITY": 0.0001204,
    "INCLINATION": 43.0025,
    "RA_OF_ASC_NODE": 135.9825,
    "ARG_OF_PERICENTER": 269.7781,
    "MEAN_ANOMALY": 90.2923,
    "EPHEMERIS_TYPE": 0,
    "CLASSIFICATION_TYPE": "U",
    "NORAD_CAT_ID": 56527,
    "ELEMENT_SET_NO": 999,
    "REV_AT_EPOCH": 13874,
    "BSTAR": 4.3757e-05,
    "MEAN_MOTION_DOT": 3.88e-06,
    "MEAN_MOTION_DDOT": 0.0,
    "TLE_LINE1": "1 56527U 23065AA  25314.78558323  .00000388  00000+0  43757-4 0  9995",
    "TLE_LINE2": "2 56527  43.0025 135.9825 0001204 269.7781  90.2923 15.02537754138748",
    "COMMENT": "Grouped by shell and plane from TLE"
  },
  {
    "OBJECT_NAME": "STARLINK-6337",
    "OBJECT_ID": "23065AB",
    "EPOCH": "2025-11-11T04:28:48.638784",
    "MEAN_MOTION": 15.02545039,
    "ECCENTRICITY": 0.0001184,
    "INCLINATION": 43.0029,
    "RA_OF_ASC_NODE": 133.8344,
    "ARG_OF_PERICENTER": 271.5479,
    "MEAN_ANOMALY": 88.5228,
    "EPHEMERIS_TYPE": 0,
    "CLASSIFICATION_TYPE": "U",
    "NORAD_CAT_ID": 56528,
    "ELEMENT_SET_NO": 999,
    "REV_AT_EPOCH": 13880,
    "BSTAR": 0.0,
    "MEAN_MOTION_DOT": -4.095e-05,
    "MEAN_MOTION_DDOT": 0.0,
    "TLE_LINE1": "1 56528U 23065AB  25315.18667406 -.00004095  00000+0 -28817-3 0  9994",
    "TLE_LINE2": "2 56528  43.0029 133.8344 0001184 271.5479  88.5228 15.02545039138808",
    "COMMENT": "Grouped by shell and plane from TLE"
  },
  {
    "OBJECT_NAME": "STARLINK-6364",
    "OBJECT_ID": "23099BC",
    "EPOCH": "2025-11-11T04:57:31.605120",
    "MEAN_MOTION": 15.02539319,
    "ECCENTRICITY": 0.000115,
    "INCLINATION": 43.0021,
    "RA_OF_ASC_NODE": 133.7303,
    "ARG_OF_PERICENTER": 264.9693,
    "MEAN_ANOMALY": 95.1018,
    "EPHEMERIS_TYPE": 0,
    "CLASSIFICATION_TYPE": "U",
    "NORAD_CAT_ID": 57378,
    "ELEMENT_SET_NO": 999,
    "REV_AT_EPOCH": 12948,
    "BSTAR": 6.7114e-05,
    "MEAN_MOTION_DOT": 7.03e-06,
    "MEAN_MOTION_DDOT": 0.0,
    "TLE_LINE1": "1 57378U 23099BC  25315.20661580  .00000703  00000+0  67114-4 0  9999",
    "TLE_LINE2": "2 57378  43.0021 133.7303 0001150 264.9693  95.1018 15.02539319129484",
    "COMMENT": "Grouped by shell and plane from TLE"
  },
  {
    "OBJECT_NAME": "STARLINK-6366",
    "OBJECT_ID": "23099BE",
    "EPOCH": "2025-11-10T20:57:18.814752",
    "MEAN_MOTION": 15.02529842,
    "ECCENTRICITY": 0.0001184,
    "INCLINATION": 43.0019,
    "RA_OF_ASC_NODE": 135.5208,
    "ARG_OF_PERICENTER": 269.6918,
    "MEAN_ANOMALY": 90.3789,
    "EPHEMERIS_TYPE": 0,
    "CLASSIFICATION_TYPE": "U",
    "NORAD_CAT_ID": 57380,
    "ELEMENT_SET_NO": 999,
    "REV_AT_EPOCH": 12942,
    "BSTAR": 1.1105e-05,
    "MEAN_MOTION_DOT": -5.4e-07,
    "MEAN_MOTION_DDOT": 0.0,
    "TLE_LINE1": "1 57380U 23099BE  25314.87313443 -.00000054  00000+0  11105-4 0  9995",
    "TLE_LINE2": "2 57380  43.0019 135.5208 0001184 269.6918  90.3789 15.02529842129423",
    "COMMENT": "Grouped by shell and plane from TLE"
  },
  {
    "OBJECT_NAME": "STARLINK-34448",
    "OBJECT_ID": "25123A",
    "EPOCH": "2025-11-10T23:01:41.800512",
    "MEAN_MOTION": 14.98324702,
    "ECCENTRICITY": 0.0002838,
    "INCLINATION": 69.9999,
    "RA_OF_ASC_NODE": 133.8314,
    "ARG_OF_PERICENTER": 273.9199,
    "MEAN_ANOMALY": 86.1636,
    "EPHEMERIS_TYPE": 0,
    "CLASSIFICATION_TYPE": "U",
    "NORAD_CAT_ID": 64291,
    "ELEMENT_SET_NO": 999,
    "REV_AT_EPOCH": 2505,
    "BSTAR": 0.0006191600000000001,
    "MEAN_MOTION_DOT": 7.301e-05,
    "MEAN_MOTION_DDOT": 0.0,
    "TLE_LINE1": "1 64291U 25123A   25314.95951158  .00007301  00000+0  61916-3 0  9999",
    "TLE_LINE2": "2 64291  69.9999 133.8314 0002838 273.9199  86.1636 14.98324702 25051",
    "COMMENT": "Grouped by shell and plane from TLE"
  },
  {
    "OBJECT_NAME": "STARLINK-34362",
    "OBJECT_ID": "25123B",
    "EPOCH": "2025-11-11T05:44:01.163040",
    "MEAN_MOTION": 14.98327966,
    "ECCENTRICITY": 0.0002923,
    "INCLINATION": 70.0009,
    "RA_OF_ASC_NODE": 133.1988,
    "ARG_OF_PERICENTER": 269.2952,
    "MEAN_ANOMALY": 90.7872,
    "EPHEMERIS_TYPE": 0,
    "CLASSIFICATION_TYPE": "U",
    "NORAD_CAT_ID": 64292,
    "ELEMENT_SET_NO": 999,
    "REV_AT_EPOCH": 2509,
    "BSTAR": 0.0006516100000000001,
    "MEAN_MOTION_DOT": 7.69e-05,
    "MEAN_MOTION_DDOT": 0.0,
    "TLE_LINE1": "1 64292U 25123B   25315.23890235  .00007690  00000+0  65161-3 0  9997",
    "TLE_LINE2": "2 64292  70.0009 133.1988 0002923 269.2952  90.7872 14.98327966 25099",
    "COMMENT": "Grouped by shell and plane from TLE"
  },
  {
    "OBJECT_NAME": "STARLINK-34428",
    "OBJECT_ID": "25123C",
    "EPOCH": "2025-11-10T11:18:26.507232",
    "MEAN_MOTION": 14.98345701,
    "ECCENTRICITY": 0.0003185,
    "INCLINATION": 69.9992,
    "RA_OF_ASC_NODE": 134.9335,
    "ARG_OF_PERICENTER": 269.9628,
    "MEAN_ANOMALY": 90.1166,
    "EPHEMERIS_TYPE": 0,
    "CLASSIFICATION_TYPE": "U",
    "NORAD_CAT_ID": 64293,
    "ELEMENT_SET_NO": 999,
    "REV_AT_EPOCH": 2498,
    "BSTAR": 0.0005828799999999999,
    "MEAN_MOTION_DOT": 6.872e-05,
    "MEAN_MOTION_DDOT": 0.0,
    "TLE_LINE1": "1 64293U 25123C   25314.47114013  .00006872  00000+0  58288-3 0  9999",
    "TLE_LINE2": "2 64293  69.9992 134.9335 0003185 269.9628  90.1166 14.98345701 24985",
    "COMMENT": "Grouped by shell and plane from TLE"
  },
  {
    "OBJECT_NAME": "STARLINK-34388",
    "OBJECT_ID": "25123D",
    "EPOCH": "2025-11-10T21:55:35.523840",
    "MEAN_MOTION": 14.98342465,
    "ECCENTRICITY": 0.0003185,
    "INCLINATION": 69.9958,
    "RA_OF_ASC_NODE": 134.0661,
    "ARG_OF_PERICENTER": 271.2198,
    "MEAN_ANOMALY": 88.8596,
    "EPHEMERIS_TYPE": 0,
    "CLASSIFICATION_TYPE": "U",
    "NORAD_CAT_ID": 64294,
    "ELEMENT_SET_NO": 999,
    "REV_AT_EPOCH": 2504,
    "BSTAR": 0.0006343,
    "MEAN_MOTION_DOT": 7.486e-05,
    "MEAN_MOTION_DDOT": 0.0,
    "TLE_LINE1": "1 64294U 25123D   25314.91360560  .00007486  00000+0  63430-3 0  9996",
    "TLE_LINE2": "2 64294  69.9958 134.0661 0003185 271.2198  88.8596 14.98342465 25042",
    "COMMENT": "Grouped by shell and plane from TLE"
  },
  {
    "OBJECT_NAME": "STARLINK-34424",
    "OBJECT_ID": "25123E",
    "EPOCH": "2025-11-10T18:55:07.450752",
    "MEAN_MOTION": 14.98320421,
    "ECCENTRICITY": 0.0002612,
    "INCLINATION": 70.0011,
    "RA_OF_ASC_NODE": 134.4254,
    "ARG_OF_PERICENTER": 270.8537,
    "MEAN_ANOMALY": 89.2323,
    "EPHEMERIS_TYPE": 0,
    "CLASSIFICATION_TYPE": "U",
    "NORAD_CAT_ID": 64295,
    "ELEMENT_SET_NO": 999,
    "REV_AT_EPOCH": 2502,
    "BSTAR": 0.00058293,
    "MEAN_MOTION_DOT": 6.867e-05,
    "MEAN_MOTION_DDOT": 0.0,
    "TLE_LINE1": "1 64295U 25123E   25314.78828068  .00006867  00000+0  58293-3 0  9997",
    "TLE_LINE2": "2 64295  70.0011 134.4254 0002612 270.8537  89.2323 14.98320421 25023",
    "COMMENT": "Grouped by shell and plane from TLE"
  },
  {
    "OBJECT_NAME": "STARLINK-34443",
    "OBJECT_ID": "25123F",
    "EPOCH": "2025-11-10T18:07:01.314048",
    "MEAN_MOTION": 14.98336616,
    "ECCENTRICITY": 0.0003449,
    "INCLINATION": 70.0028,
    "RA_OF_ASC_NODE": 134.3186,
    "ARG_OF_PERICENTER": 265.9341,
    "MEAN_ANOMALY": 94.1424,
    "EPHEMERIS_TYPE": 0,
    "CLASSIFICATION_TYPE": "U",
    "NORAD_CAT_ID": 64296,
    "ELEMENT_SET_NO": 999,
    "REV_AT_EPOCH": 2502,
    "BSTAR": 0.00089225,
    "MEAN_MOTION_DOT": 0.00010571,
    "MEAN_MOTION_DDOT": 0.0,
    "TLE_LINE1": "1 64296U 25123F   25314.75487632  .00010571  00000+0  89225-3 0  9999",
    "TLE_LINE2": "2 64296  70.0028 134.3186 0003449 265.9341  94.1424 14.98336616 25022",
    "COMMENT": "Grouped by shell and plane from TLE"
  },
  {
    "OBJECT_NAME": "STARLINK-34369",
    "OBJECT_ID": "25123G",
    "EPOCH": "2025-11-11T05:38:15.096480",
    "MEAN_MOTION": 14.98331281,
    "ECCENTRICITY": 0.0002673,
    "INCLINATION": 70.0003,
    "RA_OF_ASC_NODE": 133.1801,
    "ARG_OF_PERICENTER": 268.2294,
    "MEAN_ANOMALY": 91.8559,
    "EPHEMERIS_TYPE": 0,
    "CLASSIFICATION_TYPE": "U",
    "NORAD_CAT_ID": 64297,
    "ELEMENT_SET_NO": 999,
    "REV_AT_EPOCH": 2387,
    "BSTAR": 0.0006642099999999999,
    "MEAN_MOTION_DOT": 7.841e-05,
    "MEAN_MOTION_DDOT": 0.0,
    "TLE_LINE1": "1 64297U 25123G   25315.23489695  .00007841  00000+0  66421-3 0  9994",
    "TLE_LINE2": "2 64297  70.0003 133.1801 0002673 268.2294  91.8559 14.98331281 23875",
    "COMMENT": "Grouped by shell and plane from TLE"
  }
]